[{"OBJECT_NAME":"IRIDIUM 33 DEB","OBJECT_ID":"1997-051AAB","EPOCH":"2026-04-26T06:59:21.493536","MEAN_MOTION":14.51375977,"ECCENTRICITY":0.0025242,"INCLINATION":86.3404,"RA_OF_ASC_NODE":311.4127,"ARG_OF_PERICENTER":2.0746,"MEAN_ANOMALY":358.056,"EPHEMERIS_TYPE":0,"CLASSIFICATION_TYPE":"U","NORAD_CAT_ID":38474,"ELEMENT_SET_NO":999,"REV_AT_EPOCH":67269,"BSTAR":0.00038760137,"MEAN_MOTION_DOT":1.571e-5,"MEAN_MOTION_DDOT":0},{"OBJECT_NAME":"IRIDIUM 33 DEB","OBJECT_ID":"1997-051AAJ","EPOCH":"2026-04-27T06:11:41.346816","MEAN_MOTION":14.60063945,"ECCENTRICITY":0.00618252,"INCLINATION":85.9596,"RA_OF_ASC_NODE":109.0693,"ARG_OF_PERICENTER":88.7069,"MEAN_ANOMALY":272.1223,"EPHEMERIS_TYPE":0,"CLASSIFICATION_TYPE":"U","NORAD_CAT_ID":39777,"ELEMENT_SET_NO":999,"REV_AT_EPOCH":62160,"BSTAR":0.0036875081,"MEAN_MOTION_DOT":0.00018249,"MEAN_MOTION_DDOT":0},{"OBJECT_NAME":"IRIDIUM 33 DEB","OBJECT_ID":"1997-051AAK","EPOCH":"2026-04-27T01:27:58.278816","MEAN_MOTION":14.55453635,"ECCENTRICITY":0.00052686,"INCLINATION":86.3798,"RA_OF_ASC_NODE":344.4447,"ARG_OF_PERICENTER":303.5518,"MEAN_ANOMALY":56.5186,"EPHEMERIS_TYPE":0,"CLASSIFICATION_TYPE":"U","NORAD_CAT_ID":39778,"ELEMENT_SET_NO":999,"REV_AT_EPOCH":62660,"BSTAR":0.00075021495,"MEAN_MOTION_DOT":3.282e-5,"MEAN_MOTION_DDOT":0},{"OBJECT_NAME":"IRIDIUM 33 DEB","OBJECT_ID":"1997-051AAN","EPOCH":"2026-04-25T11:37:59.256768","MEAN_MOTION":14.24075367,"ECCENTRICITY":0.01757999,"INCLINATION":86.3746,"RA_OF_ASC_NODE":202.7651,"ARG_OF_PERICENTER":202.3236,"MEAN_ANOMALY":172.8803,"EPHEMERIS_TYPE":0,"CLASSIFICATION_TYPE":"U","NORAD_CAT_ID":39781,"ELEMENT_SET_NO":999,"REV_AT_EPOCH":10008,"BSTAR":0.0051086797,"MEAN_MOTION_DOT":0.00013815,"MEAN_MOTION_DDOT":0},{"OBJECT_NAME":"IRIDIUM 33 DEB","OBJECT_ID":"1997-051ABJ","EPOCH":"2026-04-26T06:41:16.179936","MEAN_MOTION":15.08227115,"ECCENTRICITY":0.00043606,"INCLINATION":86.3434,"RA_OF_ASC_NODE":297.9132,"ARG_OF_PERICENTER":263.8856,"MEAN_ANOMALY":218.5131,"EPHEMERIS_TYPE":0,"CLASSIFICATION_TYPE":"U","NORAD_CAT_ID":40996,"ELEMENT_SET_NO":999,"REV_AT_EPOCH":64508,"BSTAR":0.003397599,"MEAN_MOTION_DOT":0.00052923,"MEAN_MOTION_DDOT":0},{"OBJECT_NAME":"IRIDIUM 33 DEB","OBJECT_ID":"1997-051ABL","EPOCH":"2026-04-26T10:45:30.255840","MEAN_MOTION":14.45620718,"ECCENTRICITY":0.00081396,"INCLINATION":86.3862,"RA_OF_ASC_NODE":356.1038,"ARG_OF_PERICENTER":9.5913,"MEAN_ANOMALY":110.2584,"EPHEMERIS_TYPE":0,"CLASSIFICATION_TYPE":"U","NORAD_CAT_ID":40998,"ELEMENT_SET_NO":999,"REV_AT_EPOCH":8627,"BSTAR":0.00036482568,"MEAN_MOTION_DOT":1.309e-5,"MEAN_MOTION_DDOT":0},{"OBJECT_NAME":"IRIDIUM 33 DEB","OBJECT_ID":"1997-051ABN","EPOCH":"2026-04-25T19:27:35.189280","MEAN_MOTION":14.38526762,"ECCENTRICITY":0.0197762,"INCLINATION":86.2788,"RA_OF_ASC_NODE":135.8997,"ARG_OF_PERICENTER":193.5928,"MEAN_ANOMALY":345.1445,"EPHEMERIS_TYPE":0,"CLASSIFICATION_TYPE":"U","NORAD_CAT_ID":46435,"ELEMENT_SET_NO":999,"REV_AT_EPOCH":9840,"BSTAR":0.0021222434,"MEAN_MOTION_DOT":8.173e-5,"MEAN_MOTION_DDOT":0},{"OBJECT_NAME":"IRIDIUM 33 DEB","OBJECT_ID":"1997-051ABR","EPOCH":"2026-04-27T06:43:02.961696","MEAN_MOTION":14.42826851,"ECCENTRICITY":0.00378422,"INCLINATION":86.2584,"RA_OF_ASC_NODE":303.3176,"ARG_OF_PERICENTER":243.8001,"MEAN_ANOMALY":295.9726,"EPHEMERIS_TYPE":0,"CLASSIFICATION_TYPE":"U","NORAD_CAT_ID":46734,"ELEMENT_SET_NO":999,"REV_AT_EPOCH":64964,"BSTAR":0.00089776317,"MEAN_MOTION_DOT":3.039e-5,"MEAN_MOTION_DDOT":0},{"OBJECT_NAME":"IRIDIUM 33 DEB","OBJECT_ID":"1997-051ABX","EPOCH":"2026-04-26T21:45:31.002048","MEAN_MOTION":14.61330601,"ECCENTRICITY":0.0017804,"INCLINATION":86.3304,"RA_OF_ASC_NODE":280.6896,"ARG_OF_PERICENTER":221.0134,"MEAN_ANOMALY":292.753,"EPHEMERIS_TYPE":0,"CLASSIFICATION_TYPE":"U","NORAD_CAT_ID":46965,"ELEMENT_SET_NO":999,"REV_AT_EPOCH":64241,"BSTAR":0.00070771,"MEAN_MOTION_DOT":3.524e-5,"MEAN_MOTION_DDOT":0},{"OBJECT_NAME":"IRIDIUM 33 DEB","OBJECT_ID":"1997-051ACD","EPOCH":"2026-04-26T04:00:23.234976","MEAN_MOTION":15.07424987,"ECCENTRICITY":0.00070677,"INCLINATION":86.3145,"RA_OF_ASC_NODE":269.2889,"ARG_OF_PERICENTER":181.1926,"MEAN_ANOMALY":306.0754,"EPHEMERIS_TYPE":0,"CLASSIFICATION_TYPE":"U","NORAD_CAT_ID":46971,"ELEMENT_SET_NO":999,"REV_AT_EPOCH":66249,"BSTAR":0.0031213405,"MEAN_MOTION_DOT":0.00047558,"MEAN_MOTION_DDOT":0},{"OBJECT_NAME":"IRIDIUM 33 DEB","OBJECT_ID":"1997-051ACE","EPOCH":"2026-04-11T10:21:22.178016","MEAN_MOTION":14.5129921,"ECCENTRICITY":0.00118657,"INCLINATION":86.391,"RA_OF_ASC_NODE":347.8745,"ARG_OF_PERICENTER":68.0639,"MEAN_ANOMALY":58.2244,"EPHEMERIS_TYPE":0,"CLASSIFICATION_TYPE":"U","NORAD_CAT_ID":46972,"ELEMENT_SET_NO":999,"REV_AT_EPOCH":63308,"BSTAR":0.00032217764,"MEAN_MOTION_DOT":1.303e-5,"MEAN_MOTION_DDOT":0},{"OBJECT_NAME":"IRIDIUM 33 DEB","OBJECT_ID":"1997-051ACG","EPOCH":"2026-04-27T01:41:31.255296","MEAN_MOTION":14.47434347,"ECCENTRICITY":0.00921971,"INCLINATION":86.2985,"RA_OF_ASC_NODE":46.0129,"ARG_OF_PERICENTER":95.2534,"MEAN_ANOMALY":265.9198,"EPHEMERIS_TYPE":0,"CLASSIFICATION_TYPE":"U","NORAD_CAT_ID":46974,"ELEMENT_SET_NO":999,"REV_AT_EPOCH":59464,"BSTAR":0.0028650996,"MEAN_MOTION_DOT":0.00011118,"MEAN_MOTION_DDOT":0}]
