IRIDIUM 33 DEB          
1 38474U 97051AAB 26116.29122099  .00001571  00000+0  38760-3 0  9998
2 38474  86.3404 311.4127 0025242   2.0746 358.0560 14.51375977672692
IRIDIUM 33 DEB          
1 39777U 97051AAJ 26117.25811744  .00018249  00000+0  36875-2 0  9998
2 39777  85.9596 109.0693 0061825  88.7069 272.1223 14.60063945621607
IRIDIUM 33 DEB          
1 39778U 97051AAK 26117.06109119  .00003282  00000+0  75021-3 0  9992
2 39778  86.3798 344.4447 0005268 303.5518  56.5186 14.55453635626605
IRIDIUM 33 DEB          
1 39781U 97051AAN 26115.48471362  .00013815  00000+0  51087-2 0  9990
2 39781  86.3746 202.7651 0175799 202.3236 172.8803 14.24075367100080
IRIDIUM 33 DEB          
1 40996U 97051ABJ 26116.27865949  .00052923  00000+0  33976-2 0  9996
2 40996  86.3434 297.9132 0004360 263.8856 218.5131 15.08227115645088
IRIDIUM 33 DEB          
1 40998U 97051ABL 26116.44826685  .00001309  00000+0  36483-3 0  9990
2 40998  86.3862 356.1038 0008139   9.5913 110.2584 14.45620718 86271
IRIDIUM 33 DEB          
1 46435U 97051ABN 26115.81082395  .00008173  00000+0  21222-2 0  9994
2 46435  86.2788 135.8997 0197762 193.5928 345.1445 14.38526762 98405
IRIDIUM 33 DEB          
1 46734U 97051ABR 26117.27989539  .00003039  00000+0  89776-3 0  9999
2 46734  86.2584 303.3176 0037842 243.8001 295.9726 14.42826851649644
IRIDIUM 33 DEB          
1 46965U 97051ABX 26116.90660882  .00003524  00000+0  70771-3 0  9995
2 46965  86.3304 280.6896 0017804 221.0134 292.7530 14.61330601642418
IRIDIUM 33 DEB          
1 46971U 97051ACD 26116.16693559  .00047558  00000+0  31213-2 0  9999
2 46971  86.3145 269.2889 0007067 181.1926 306.0754 15.07424987662497
IRIDIUM 33 DEB          
1 46972U 97051ACE 26101.43150669  .00001303  00000+0  32218-3 0  9999
2 46972  86.3910 347.8745 0011865  68.0639  58.2244 14.51299210633087
IRIDIUM 33 DEB          
1 46974U 97051ACG 26117.07050064  .00011118  00000+0  28651-2 0  9996
2 46974  86.2985  46.0129 0092197  95.2534 265.9198 14.47434347594647
